STARLINK-31334          
1 59157U 24044F   26068.81628732 -.00002151  00000+0 -68658-4 0  9997
2 59157  43.0034 109.8659 0001304 290.5191  69.5521 15.27573584113545
COSMOS 2588             
1 64095U 25109A   26068.81179522  .00009169  00000+0  32611-3 0  9998
2 64095  72.9704  73.5401 0005019 308.6780  51.3966 15.29122656 44425
